C/2024 G5 (Leonard),e,50.3874,316.3963,209.5684,552.9549,0.0000758,0.99465981,0.0000,09/07.0174/2024,2000,g 13.0,4.0
# From MPEC 2024-RQ6
C/2024 G6 (ATLAS),h,02/20.8777/2026,120.4579,250.9518,23.4532,1.002340,6.429326,2000,5.5,4.0
# From MPEC 2024-Q20
C/2024 G7 (ATLAS),h,02/10.1796/2025,131.5177,191.9553,289.6584,1.001916,6.027713,2000,7.0,4.0
# From MPEC 2024-Q05
A/2024 G8,e,97.4087,11.2481,249.1585,142.6061,0.0005788,0.99177855,0.0000,06/15.5981/2024,2000,g 20.0,2.0
# From MPEC 2025-AH4
P/2024 J1 (PANSTARRS),e,13.1604,321.9488,200.3418,3.808425,0.1326130,0.30750245,57.2685,01/16.0/2025,2000,g 14.5,4.0
# From MPEC 2025-AH4
C/2024 J2 (Wierzchos),e,79.2968,189.0596,143.1579,147.4345,0.0005506,0.98771734,0.0000,03/19.7794/2025,2000,g 11.5,4.0
# From MPEC 2024-UA9
C/2024 J3 (ATLAS),h,11/25.2933/2026,75.6374,285.9615,74.0915,1.000893,3.864835,2000,5.0,4.0
# From MPEC 2024-TD8
C/2024 J4 (Lemmon),e,117.5335,19.3004,127.8616,5799,0.0000022,0.99901788,0.0000,04/26.0636/2025,2000,g  8.0,4.0
# From MPEC 2025-AH4
P/2024 K1 (PANSTARRS),e,1.8206,251.6244,349.4037,6.836244,0.0551414,0.49060605,14.6865,01/16.0/2025,2000,g 13.5,4.0
# From MPEC 2024-RQ6
C/2024 L1 (PANSTARRS),e,99.1695,45.1400,171.8163,11.46291,0.0253958,0.53346110,357.5275,01/16.0/2025,2000,g 10.0,4.0
# From MPEC 2025-AH4
C/2024 L2 (PANSTARRS),h,06/17.7872/2025,139.5869,266.1798,345.9079,1.004564,8.326215,2000,7.5,3.2
# From MPEC 2025-AH4
C/2024 L3 (PANSTARRS),h,11/24.1955/2023,111.5935,294.9955,59.0736,1.005070,6.858235,2000,9.5,4.0
# From MPEC 2024-RQ6
P/2024 L4 (Rankin),e,10.0466,139.7780,53.7012,2.228261,0.2963159,0.69839455,81.9931,01/16.0/2025,2000,g 21.5,4.0
# From MPEC 2025-AH4
C/2024 L5 (ATLAS),h,03/10.4000/2025,166.5733,139.1747,290.5135,1.037407,3.432400,2000,9.0,4.0
# From MPEC 2025-AH4
C/2024 M1 (ATLAS),e,73.7100,76.2151,345.5968,29.92765,0.0060200,0.94308421,0.3430,01/16.0/2025,2000,g 12.0,4.0
# From MPEC 2024-RQ6
C/2024 N1 (PANSTARRS),h,10/18.8703/2025,88.7750,323.0141,91.2514,1.000954,4.398178,2000,10.5,4.0
# From MPEC 2025-AE4
C/2024 N3 (Sarneczky),h,04/11.3798/2025,88.7288,82.6078,86.8779,1.001069,5.014586,2000,8.0,4.0
# From MPEC 2025-AH4
C/2024 N4 (Sarneczky),h,01/09.9533/2025,49.7714,339.6622,116.6754,1.004539,5.397633,2000,7.5,4.0
# From MPEC 2024-PC5
C/2024 O1 (PANSTARRS),h,01/28.8323/2023,59.0764,303.3384,349.9119,1.001021,6.607787,2000,8.5,4.0
# From MPEC 2024-UA9
P/2024 O2 (PANSTARRS),e,28.9750,6.8055,310.7920,7.384936,0.0491116,0.49929779,13.2983,01/16.0/2025,2000,g 12.0,4.0
# From MPEC 2025-AH4
P/2024 OC2 (PANSTARRS),e,7.6712,136.6179,258.5377,2.625742,0.2316466,0.77422429,22.8574,01/16.0/2025,2000,g 20.5,4.0
# From MPEC 2025-AE5
C/2024 PN7 (PANSTARRS),e,101.2101,358.5825,74.2753,67.29670,0.0017853,0.97734646,0.0000,12/06.4418/2024,2000,g 15.2,4.0
# From MPEC 2024-UQ8
P/2024 Q1 (PANSTARRS),e,5.0151,23.1381,284.4259,3.518102,0.1493624,0.53482110,32.1795,01/16.0/2025,2000,g 17.0,4.0
# From MPEC 2024-TD8
C/2024 Q3 (PANSTARRS),h,03/05.2347/2025,121.3764,337.2849,70.1320,1.001425,2.091469,2000,15.0,4.0
# From MPEC 2025-A40
C/2024 Q4 (PANSTARRS),e,3.3115,324.3092,132.9982,991.3067,0.0000316,0.99453376,0.0000,11/12.1362/2024,2000,g 10.0,4.0
# From MPEC 2024-TP3
P/2024 R1 (PANSTARRS),e,12.7364,84.9821,230.6003,3.451352,0.1537164,0.49296645,32.9412,01/16.0/2025,2000,g 18.0,4.0
# From MPEC 2024-TD8
P/2024 R2 (PANSTARRS),e,15.1053,193.0245,203.9027,3.139369,0.1771906,0.26665081,18.8390,01/16.0/2025,2000,g 15.5,4.0
# From MPEC 2024-YC7
P/2024 R3 (PANSTARRS),e,14.7291,33.2795,309.1508,3.198673,0.1722857,0.26679615,43.6029,01/16.0/2025,2000,g 15.0,4.0
# From MPEC 2024-YC7
C/2024 R4 (PANSTARRS),h,10/26.5837/2027,95.3516,345.9305,108.9782,1.002720,4.409964,2000,6.5,4.0
# From MPEC 2024-VB7
C/2024 S1 (ATLAS),e,141.9149,347.2212,69.2232,87.54352,0.0012033,0.99990905,0.0000,10/28.4860/2024,2000,g 15.5,4.0
# From MPEC 2025-A40
P/2024 S2 (Rankin),e,7.5248,8.3533,49.1896,5.042885,0.0870333,0.59387420,10.5841,01/16.0/2025,2000,g 15.0,4.0
# From MPEC 2025-AH4
P/2024 T1 (Rankin),e,17.6195,279.7095,164.8768,6.604206,0.0580729,0.65370013,6.2464,01/16.0/2025,2000,g 14.5,4.0
# From MPEC 2025-AH4
P/2024 T2 (Rankin),e,12.9284,113.0606,343.8306,6.175694,0.0642208,0.68063758,2.4825,01/16.0/2025,2000,g 16.0,4.0
# From MPEC 2025-A40
C/2024 T3 (PANSTARRS),e,53.4833,74.8319,336.8814,82.99604,0.0013035,0.95522368,359.9241,01/16.0/2025,2000,g 11.5,4.0
# From MPEC 2025-AE4
C/2024 T5 (ATLAS),h,05/06.3993/2027,52.3872,100.6824,352.4164,1.001864,3.843558,2000,5.5,4.0
# From MPEC 2025-AH4
C/2024 U1 (PANSTARRS),e,128.7526,270.2613,188.0770,548.8810,0.0000766,0.99118955,0.0000,06/30.5032/2024,2000,g 10.0,4.0
# From MPEC 2024-YO4
A/2024 U2,e,120.6197,56.0641,29.9118,14301,0.0000006,0.99942846,0.0000,01/16.8611/2026,2000,g 12.1,2.0
# From MPEC 2025-AH4
C/2024 V1 (Borisov),e,54.6219,328.1968,168.6561,233.3004,0.0002766,0.99006189,0.0000,04/04.0906/2025,2000,g 14.8,4.0
# From MPEC 2024-YC7
C/2024 V2 (Sarneczky),e,95.9718,102.2017,13.7170,39.27480,0.0040044,0.96835263,0.2930,01/16.0/2025,2000,g 19.0,4.0
# From MPEC 2024-XR9
C/2024 W1 (PANSTARRS),e,83.2050,310.7263,256.8073,43.51233,0.0034339,0.94118071,359.7860,01/16.0/2025,2000,g 15.0,4.0
# From MPEC 2024-YO9
A/2024 W2,h,02/27.7016/2025,116.6268,241.9463,168.0573,1.000117,3.719701,2000,15.6,2.0
# From MPEC 2025-AE4
C/2024 X1 (Fazekas),e,6.4574,352.3502,124.0197,9.515875,0.0335762,0.59842811,353.2859,01/16.0/2025,2000,g 11.3,4.0
# From MPEC 2025-AE4
C/2024 X2 (ATLAS),e,109.2331,122.4761,315.7779,52.54778,0.0025875,0.93001624,359.5524,01/16.0/2025,2000,g  9.6,4.0
# From MPEC 2025-A40
P/2024 X3 (PANSTARRS),e,2.9724,113.3621,352.9368,6.974811,0.0535064,0.62527152,7.0755,01/16.0/2025,2000,g 14.6,4.0
# From MPEC 2025-A40
C/2024 X4 (PANSTARRS),e,34.6687,258.9443,153.2792,10.05615,0.0309070,0.64152146,352.9265,01/16.0/2025,2000,g 12.6,4.0
# From MPEC 2025-AE4
C/2024 Y1 (Masek),e,64.7889,112.4892,238.2138,90.01862,0.0011540,0.99085208,0.0000,11/26.9138/2024,2000,g 17.6,4.0
# From MPEC 2025-AE4
A/2025 A1,h,03/12.3847/2027,33.4083,101.3297,67.9241,1.000955,5.353719,2000,11.0,2.0
# From MPEC 2025-AH4
P/2025 A2 (PANSTARRS),e,20.7335,189.3197,278.1073,5.084983,0.0859547,0.32220136,8.7662,01/16.0/2025,2000,g 13.2,4.0
# From MPEC 2025-AH8
C/2025 A3 (Tsuchinshan),e,10.0229,322.4684,227.2742,10.30678,0.0297865,0.44860088,345.8765,01/16.0/2025,2000,g  9.0,4.0
# From  98, 1083
1P/Halley,e,162.2077,59.6905,112.6009,17.86515,0.0130525,0.96721860,185.3379,01/16.0/2025,2000,g  4.0,6.0
# From MPEC 2025-AH4
2P/Encke,e,11.3419,334.0141,187.2805,2.218248,0.2983246,0.84704983,134.6793,01/16.0/2025,2000,g 11.5,6.0
# From  76, 1135
3D/Biela,e,7.8877,276.1879,192.2936,3.539241,0.1480263,0.76753932,336.1380,01/16.0/2025,2000,g 11.0,6.0
# From  76, 1135
3D-A/Biela,e,7.2156,276.6835,192.1207,3.550123,0.1473462,0.76711104,6.6127,01/16.0/2025,2000,g 11.0,6.0
# From  76, 1135
3D-B/Biela,e,7.8798,276.2027,192.2547,3.539980,0.1479799,0.76783741,335.8679,01/16.0/2025,2000,g 11.0,6.0
# From MPEC 2023-FK0
4P/Faye,e,8.0050,192.9175,207.1290,3.829463,0.1315217,0.57651579,161.0964,01/16.0/2025,2000,g  8.0,6.0
# From  27, 116
5D/Brorsen,e,18.6308,94.9065,20.3000,3.158336,0.1755968,0.83783510,112.3388,01/16.0/2025,2000,g 10.5,6.0
# From MPEC 2022-WD2
6P/d'Arrest,e,19.4991,138.9506,178.0662,3.497663,0.1506736,0.61188146,183.4154,01/16.0/2025,2000,g  7.5,16.0
# From MPEC 2023-A50
7P/Pons-Winnecke,e,22.5122,93.2678,172.4393,3.401043,0.1571397,0.64208768,208.8736,01/16.0/2025,2000,g 10.0,6.0
# From MPEC 2022-HC2
8P/Tuttle,e,54.9840,270.1770,207.4717,5.704776,0.0723346,0.82063435,89.4520,01/16.0/2025,2000,g  8.0,8.0
# From MPEC 2024-YC7
9P/Tempel,e,10.8040,67.4191,184.3444,3.270289,0.1666575,0.48068673,175.5313,01/16.0/2025,2000,g  5.5,10.0
# From MPEC 2025-AH4
10P/Tempel,e,12.0276,117.8023,195.5063,3.063399,0.1838225,0.53739944,256.4744,01/16.0/2025,2000,g  5.0,10.0
# From MPEC 2024-R10
11P/Tempel-Swift-LINEAR,e,14.4345,238.8651,168.0442,3.283328,0.1656657,0.57753311,250.2001,01/16.0/2025,2000,g 17.0,4.0
# From MPEC 2024-UA9
12P/Pons-Brooks,e,74.1930,255.8549,198.9971,17.20574,0.0138100,0.95461299,3.7269,01/16.0/2025,2000,g  5.0,6.0
# From MPEC 2024-UQ8
13P/Olbers,e,44.6667,85.8466,64.4184,16.88050,0.0142111,0.93036575,2.8414,01/16.0/2025,2000,g  5.0,6.0
# From MPEC 2024-LE0
14P/Wolf,e,27.9203,202.0306,159.1920,4.256635,0.1122288,0.35676894,291.4329,01/16.0/2025,2000,g  5.5,12.0
# From MPEC 2022-ED3
15P/Finlay,e,6.7895,13.7465,347.8728,3.510526,0.1498462,0.71629700,192.2263,01/16.0/2025,2000,g 12.0,4.0
# From MPEC 2022-X67
16P/Brooks,e,3.0100,138.8347,245.3657,3.661576,0.1406701,0.48583954,192.5146,01/16.0/2025,2000,g  7.5,10.0
# From MPEC 2023-J29
17P/Holmes,e,19.0092,326.6146,24.6245,3.640933,0.1418682,0.42651291,202.4400,01/16.0/2025,2000,g 10.0,6.0
# From  19, 80
18D/Perrine-Mrkos,e,17.657,158.457,238.233,3.88309,0.128807,0.5896481,18.007,01/16.0/2025,2000,g  9.0,4.0
# From MPEC 2024-YC7
19P/Borrelly,e,29.3180,74.2141,351.9989,3.608161,0.1438054,0.63787191,155.1272,01/16.0/2025,2000,g  4.5,10.0
# From MPEC 2024-YC7
21P/Giacobini-Zinner,e,32.0502,195.3323,172.9330,3.491850,0.1510500,0.71105425,349.6746,01/16.0/2025,2000,g  9.0,6.0
# From MPEC 2024-L77
22P/Kopff,e,4.7817,120.3675,162.9087,3.422248,0.1556814,0.55427906,160.7937,01/16.0/2025,2000,g  3.0,10.4
# From MPC 14747
23P/Brorsen-Metcalf,e,19.4379,311.2811,129.8826,16.93915,0.0141373,0.97260732,0.0000,05/25.8257/2059,2000,g 10.0,6.0
# From MPC110085
24P/Schaumasse,e,11.5061,78.3698,58.4000,4.056377,0.1206415,0.70813244,316.8923,01/16.0/2025,2000,g  6.5,14.0
# From NK 378
25D/Neujmin 2,e,2.8086,279.9736,244.7869,3.222354,0.1703900,0.55053125,340.3369,01/16.0/2025,2000,g 12.5,6.0
# From MPEC 2024-TP3
26P/Grigg-Skjellerup,e,22.4341,211.5359,2.1300,3.014933,0.1882728,0.64056477,72.9898,01/16.0/2025,2000,g 12.0,16.0
# From MPC 78188
27P/Crommelin,e,29.4446,250.7106,195.8363,9.179027,0.0354413,0.91964259,174.2581,01/16.0/2025,2000,g 12.0,8.0
# From MPEC 2025-A40
